OBJECT_NAME,OBJECT_ID,EPOCH,MEAN_MOTION,ECCENTRICITY,INCLINATION,RA_OF_ASC_NODE,ARG_OF_PERICENTER,MEAN_ANOMALY,EPHEMERIS_TYPE,CLASSIFICATION_TYPE,NORAD_CAT_ID,ELEMENT_SET_NO,REV_AT_EPOCH,BSTAR,MEAN_MOTION_DOT,MEAN_MOTION_DDOT
QIANFAN-52,2024-232S,2026-07-13T14:05:00.666528,13.51013692,.00135171,89.0067,19.7176,301.5883,58.3948,0,U,62253,999,9668,.6102103E-4,.51E-6,0
QIANFAN-53,2024-232T,2026-07-13T13:35:28.040064,13.51009771,.0012425,89.0075,19.8403,303.3193,56.6768,0,U,62254,999,9664,.20382834E-4,.25E-6,0
QIANFAN-54,2024-232U,2026-07-13T14:34:39.349632,13.51013571,.00024589,89.0066,19.4958,35.0069,325.1243,0,U,62255,999,12815,.2855158E-4,.3E-6,0
PROBA-3 CSC,2024-233A,2026-07-04T12:11:00.375936,1.22075384,.8000422,59.7314,96.0051,206.0776,67.5703,0,U,62256,999,703,0,-.317E-5,0
PROBA-3 OSC,2024-233C,2026-07-04T12:11:09.521376,1.22075363,.8000227,59.7187,96.0232,206.0626,67.6161,0,U,62258,999,702,0,-.317E-5,0
SXM-9,2024-234A,2026-07-12T06:15:50.293728,1.00268373,.000502,0.0182,333.2441,342.7559,342.9520,0,U,62259,999,582,0,-.203E-5,0
SENTINEL-1C,2024-235A,2026-07-13T14:25:40.531584,14.59197083,.0001299,98.1825,201.5341,91.4546,268.6803,0,U,62261,999,8526,-.10113498E-4,-.93E-6,0
STARLINK-32632,2024-231V,2026-07-13T15:00:06.003072,15.31713457,.00010958,53.1610,354.3899,119.9144,240.1966,0,U,62262,999,9105,.45531857E-3,.13796E-3,0
STARLINK-11496 [DTC],2024-237A,2026-07-13T11:45:40.656096,15.70984555,.00021345,43.0002,18.6655,288.9181,71.1455,0,U,62267,999,9283,.11669325E-2,.153004E-2,0
STARLINK-11501 [DTC],2024-237B,2026-07-12T21:15:45.994464,15.70871968,.00015951,42.9997,21.8581,274.3366,85.7319,0,U,62268,999,9269,.11564908E-2,.150871E-2,0
STARLINK-11491 [DTC],2024-237C,2026-07-13T12:23:42.941472,15.70895589,.00017367,42.9998,17.9843,264.9216,95.1454,0,U,62269,999,9284,.7604039E-3,.98517E-3,0
STARLINK-11479 [DTC],2024-237D,2026-07-13T12:46:38.953056,15.70941072,.00017624,42.9998,18.1102,253.1611,106.9064,0,U,62270,999,9284,.12914275E-2,.169399E-2,0
STARLINK-11489 [DTC],2024-237E,2026-07-12T20:53:01.010112,15.70881148,.00017308,42.9993,22.6301,281.3052,78.7621,0,U,62271,999,9273,.96903835E-3,.126013E-2,0
STARLINK-11494 [DTC],2024-237F,2026-07-13T13:09:35.026848,15.71048950,.00029489,43.0003,18.2394,265.7228,94.3302,0,U,62272,999,9279,.92566244E-3,.121148E-2,0
STARLINK-11333 [DTC],2024-237G,2026-07-13T11:53:19.039200,15.70911205,.00016531,43.0008,18.7081,259.7360,100.3321,0,U,62273,999,9283,.1051506E-2,.137132E-2,0
STARLINK-11504 [DTC],2024-237H,2026-07-13T13:01:56.177184,15.70911234,.00016391,42.9995,18.1935,242.8925,117.1776,0,U,62274,999,9279,.83449183E-3,.108359E-2,0
STARLINK-11495 [DTC],2024-237J,2026-07-12T22:32:13.245216,15.70892376,.00016151,43.0001,22.2863,297.3516,62.7187,0,U,62275,999,9269,.10974359E-2,.143133E-2,0
STARLINK-11498 [DTC],2024-237K,2026-07-13T12:39:00.318528,15.70940378,.0001737,42.9994,18.0663,262.3339,97.7331,0,U,62276,999,9284,.1271317E-2,.166694E-2,0
STARLINK-11484 [DTC],2024-237L,2026-07-12T21:38:42.176256,15.70875001,.00018059,42.9996,21.9850,270.4652,89.6009,0,U,62277,999,9274,.10382118E-2,.135156E-2,0
STARLINK-11487 [DTC],2024-237M,2026-07-12T22:16:55.666848,15.70893776,.00017702,42.9998,22.1953,277.4218,82.6449,0,U,62278,999,9274,.11969997E-2,.156421E-2,0
STARLINK-11499 [DTC],2024-237N,2026-07-13T12:17:33.871776,15.70914633,.00021902,43.0003,18.8401,262.3398,97.7221,0,U,62279,999,9276,.98596374E-3,.128444E-2,0
STARLINK-33548,2024-237P,2026-07-13T12:48:34.051680,15.27599808,.00014093,42.9983,214.8029,248.2906,111.7796,0,U,62280,999,9056,.29176766E-3,.778E-4,0
STARLINK-33544,2024-237Q,2026-07-13T10:57:42.698880,15.27591529,.00011243,42.9973,226.3305,274.8399,85.2325,0,U,62281,999,9042,.31594576E-3,.8445E-4,0
STARLINK-33560,2024-237R,2026-07-13T10:31:48.607392,15.27586001,.00011774,42.9986,226.1924,270.5383,89.5333,0,U,62282,999,9033,.2553336E-3,.6772E-4,0
STARLINK-33547,2024-237S,2026-07-13T03:18:03.811968,15.27585647,.00017816,42.9915,216.9765,199.1896,160.8888,0,U,62283,999,9050,.46169131E-3,.12467E-3,0
STARLINK-33563,2024-237T,2026-07-13T02:50:16.545984,15.27589164,.00011154,42.9977,228.0847,276.7430,83.3295,0,U,62284,999,9037,.32492833E-3,.8692E-4,0
STARLINK-33550,2024-237U,2026-07-13T02:35:28.527648,15.27586877,.00017037,42.9982,228.0095,286.0712,73.9952,0,U,62285,999,9037,.25331527E-3,.6716E-4,0
STARLINK-33564,2024-237V,2026-07-13T02:55:47.764704,15.27632372,.00010462,42.9952,228.1157,259.7020,100.3713,0,U,62286,999,9037,.7682101E-3,.20971E-3,0
STARLINK-33546,2024-237W,2026-07-13T13:43:50.358432,15.27586135,.00030241,42.9980,225.4708,28.6058,331.4959,0,U,62287,999,9035,.58433417E-4,.1346E-4,0
STARLINK-33565,2024-237X,2026-07-13T10:26:17.180448,15.27587948,.00018555,43.0018,214.9175,281.2574,78.8069,0,U,62288,999,9055,.24782448E-3,.6565E-4,0
