QIANFAN-52              
1 62253U 24232S   26194.58681327  .00000051  00000+0  61021-4 0  9992
2 62253  89.0067  19.7176 0013517 301.5883  58.3948 13.51013692 96683
QIANFAN-53              
1 62254U 24232T   26194.56629676  .00000025  00000+0  20383-4 0  9997
2 62254  89.0075  19.8403 0012425 303.3193  56.6768 13.51009771 96648
QIANFAN-54              
1 62255U 24232U   26194.60739988  .00000030  00000+0  28552-4 0  9993
2 62255  89.0066  19.4958 0002458  35.0069 325.1243 13.51013571128153
PROBA-3 CSC             
1 62256U 24233A   26185.50764324 -.00000317  00000+0  00000+0 0  9998
2 62256  59.7314  96.0051 8000422 206.0776  67.5703  1.22075384  7037
PROBA-3 OSC             
1 62258U 24233C   26185.50774909 -.00000317  00000+0  00000+0 0  9990
2 62258  59.7187  96.0232 8000227 206.0626  67.6161  1.22075363  7020
SXM-9                   
1 62259U 24234A   26193.26099877 -.00000203  00000+0  00000+0 0  9992
2 62259   0.0182 333.2441 0005020 342.7559 342.9520  1.00268373  5829
SENTINEL-1C             
1 62261U 24235A   26194.60116356 -.00000093  00000+0 -10113-4 0  9996
2 62261  98.1825 201.5341 0001299  91.4546 268.6803 14.59197083 85269
STARLINK-32632          
1 62262U 24231V   26194.62506948  .00013796  00000+0  45532-3 0  9999
2 62262  53.1610 354.3899 0001095 119.9144 240.1966 15.31713457 91051
STARLINK-11496 [DTC]    
1 62267U 24237A   26194.49005389  .00153004  00000+0  11669-2 0  9998
2 62267  43.0002  18.6655 0002134 288.9181  71.1455 15.70984555 92836
STARLINK-11501 [DTC]    
1 62268U 24237B   26193.88594901  .00150871  00000+0  11565-2 0  9998
2 62268  42.9997  21.8581 0001595 274.3366  85.7319 15.70871968 92693
STARLINK-11491 [DTC]    
1 62269U 24237C   26194.51646923  .00098517  00000+0  76040-3 0  9990
2 62269  42.9998  17.9843 0001736 264.9216  95.1454 15.70895589 92845
STARLINK-11479 [DTC]    
1 62270U 24237D   26194.53239529  .00169399  00000+0  12914-2 0  9990
2 62270  42.9998  18.1102 0001762 253.1611 106.9064 15.70941072 92843
STARLINK-11489 [DTC]    
1 62271U 24237E   26193.87015058  .00126013  00000+0  96904-3 0  9994
2 62271  42.9993  22.6301 0001730 281.3052  78.7621 15.70881148 92737
STARLINK-11494 [DTC]    
1 62272U 24237F   26194.54832207  .00121148  00000+0  92566-3 0  9997
2 62272  43.0003  18.2394 0002948 265.7228  94.3302 15.71048950 92791
STARLINK-11333 [DTC]    
1 62273U 24237G   26194.49535925  .00137132  00000+0  10515-2 0  9992
2 62273  43.0008  18.7081 0001653 259.7360 100.3321 15.70911205 92832
STARLINK-11504 [DTC]    
1 62274U 24237H   26194.54301131  .00108359  00000+0  83449-3 0  9995
2 62274  42.9995  18.1935 0001639 242.8925 117.1776 15.70911234 92799
STARLINK-11495 [DTC]    
1 62275U 24237J   26193.93904219  .00143133  00000+0  10974-2 0  9995
2 62275  43.0001  22.2863 0001615 297.3516  62.7187 15.70892376 92696
STARLINK-11498 [DTC]    
1 62276U 24237K   26194.52708702  .00166694  00000+0  12713-2 0  9991
2 62276  42.9994  18.0663 0001737 262.3339  97.7331 15.70940378 92849
STARLINK-11484 [DTC]    
1 62277U 24237L   26193.90187704  .00135156  00000+0  10382-2 0  9995
2 62277  42.9996  21.9850 0001805 270.4652  89.6009 15.70875001 92748
STARLINK-11487 [DTC]    
1 62278U 24237M   26193.92842207  .00156421  00000+0  11970-2 0  9996
2 62278  42.9998  22.1953 0001770 277.4218  82.6449 15.70893776 92744
STARLINK-11499 [DTC]    
1 62279U 24237N   26194.51219759  .00128444  00000+0  98596-3 0  9997
2 62279  43.0003  18.8401 0002190 262.3398  97.7221 15.70914633 92766
STARLINK-33548          
1 62280U 24237P   26194.53372745  .00007780  00000+0  29177-3 0  9994
2 62280  42.9983 214.8029 0001409 248.2906 111.7796 15.27599808 90562
STARLINK-33544          
1 62281U 24237Q   26194.45674420  .00008445  00000+0  31595-3 0  9997
2 62281  42.9973 226.3305 0001124 274.8399  85.2325 15.27591529 90422
STARLINK-33560          
1 62282U 24237R   26194.43875703  .00006772  00000+0  25533-3 0  9999
2 62282  42.9986 226.1924 0001177 270.5383  89.5333 15.27586001 90331
STARLINK-33547          
1 62283U 24237S   26194.13754412  .00012467  00000+0  46169-3 0  9996
2 62283  42.9915 216.9765 0001781 199.1896 160.8888 15.27585647 90502
STARLINK-33563          
1 62284U 24237T   26194.11824706  .00008692  00000+0  32493-3 0  9999
2 62284  42.9977 228.0847 0001115 276.7430  83.3295 15.27589164 90377
STARLINK-33550          
1 62285U 24237U   26194.10796907  .00006716  00000+0  25332-3 0  9999
2 62285  42.9982 228.0095 0001703 286.0712  73.9952 15.27586877 90372
STARLINK-33564          
1 62286U 24237V   26194.12208061  .00020971  00000+0  76821-3 0  9999
2 62286  42.9952 228.1157 0001046 259.7020 100.3713 15.27632372 90371
STARLINK-33546          
1 62287U 24237W   26194.57211063  .00001346  00000+0  58433-4 0  9990
2 62287  42.9980 225.4708 0003024  28.6058 331.4959 15.27586135 90359
STARLINK-33565          
1 62288U 24237X   26194.43492107  .00006565  00000+0  24782-3 0  9993
2 62288  43.0018 214.9175 0001855 281.2574  78.8069 15.27587948 90554
